{
    "links": {
        "self": "http://www.neowsapp.com/rest/v1/neo/3742129?api_key=iIulBulltgU6a56xZRHN4H3l9WmuAYTsLGpBGhQ2"
    },
    "id": "3742129",
    "neo_reference_id": "3742129",
    "name": "(2016 CD32)",
    "designation": "2016 CD32",
    "nasa_jpl_url": "http://ssd.jpl.nasa.gov/sbdb.cgi?sstr=3742129",
    "absolute_magnitude_h": 23.2,
    "estimated_diameter": {
        "kilometers": {
            "estimated_diameter_min": 0.0608912622,
            "estimated_diameter_max": 0.1361570015
        },
        "meters": {
            "estimated_diameter_min": 60.8912622106,
            "estimated_diameter_max": 136.1570015386
        },
        "miles": {
            "estimated_diameter_min": 0.0378360645,
            "estimated_diameter_max": 0.0846040122
        },
        "feet": {
            "estimated_diameter_min": 199.7744887109,
            "estimated_diameter_max": 446.7093369279
        }
    },
    "is_potentially_hazardous_asteroid": false,
    "close_approach_data": [
        {
            "close_approach_date": "1997-01-23",
            "close_approach_date_full": "1997-Jan-23 03:07",
            "epoch_date_close_approach": 853988820000,
            "relative_velocity": {
                "kilometers_per_second": "9.8937702338",
                "kilometers_per_hour": "35617.5728415602",
                "miles_per_hour": "22131.3746359128"
            },
            "miss_distance": {
                "astronomical": "0.2847986629",
                "lunar": "110.7866798681",
                "kilometers": "42605273.348688023",
                "miles": "26473689.2575917974"
            },
            "orbiting_body": "Earth"
        },
        {
            "close_approach_date": "2016-01-27",
            "close_approach_date_full": "2016-Jan-27 18:57",
            "epoch_date_close_approach": 1453921020000,
            "relative_velocity": {
                "kilometers_per_second": "9.8493756336",
                "kilometers_per_hour": "35457.7522811322",
                "miles_per_hour": "22032.0683549068"
            },
            "miss_distance": {
                "astronomical": "0.3009024697",
                "lunar": "117.0510607133",
                "kilometers": "45014368.544859539",
                "miles": "27970631.5983540782"
            },
            "orbiting_body": "Earth"
        },
        {
            "close_approach_date": "2035-02-01",
            "close_approach_date_full": "2035-Feb-01 20:15",
            "epoch_date_close_approach": 2053973700000,
            "relative_velocity": {
                "kilometers_per_second": "9.9439910934",
                "kilometers_per_hour": "35798.3679361235",
                "miles_per_hour": "22243.7136767541"
            },
            "miss_distance": {
                "astronomical": "0.3713918337",
                "lunar": "144.4714233093",
                "kilometers": "55559427.256914219",
                "miles": "34523027.2434014622"
            },
            "orbiting_body": "Earth"
        }
    ],
    "orbital_data": {
        "orbit_id": "3",
        "orbit_determination_date": "2017-04-06 08:28:33",
        "first_observation_date": "2016-01-16",
        "last_observation_date": "2016-02-08",
        "data_arc_in_days": 23,
        "observations_used": 16,
        "orbit_uncertainty": "6",
        "minimum_orbit_intersection": ".284806",
        "jupiter_tisserand_invariant": "3.762",
        "epoch_osculation": "2459000.5",
        "eccentricity": ".3483166263930781",
        "semi_major_axis": "1.944135586783717",
        "inclination": "18.61649675858573",
        "ascending_node_longitude": "127.0780800713399",
        "orbital_period": "990.1209544537509",
        "perihelion_distance": "1.266960837944485",
        "perihelion_argument": "351.300262397375",
        "aphelion_distance": "2.621310335622949",
        "perihelion_time": "2459380.194660060979",
        "mean_anomaly": "221.946081428643",
        "mean_motion": ".3635919413488343",
        "equinox": "J2000",
        "orbit_class": {
            "orbit_class_type": "AMO",
            "orbit_class_description": "Near-Earth asteroid orbits similar to that of 1221 Amor",
            "orbit_class_range": "1.017 AU < q (perihelion) < 1.3 AU"
        }
    },
    "is_sentry_object": false
}